0 XW-2A
1 40903U 15049E   23089.50281442  .00360484  51286-4  10898-2 0  9992
2 40903  97.1218 156.9870 0005329 164.8247 320.1142 15.92114872423960
0 ISS (ZARYA)
1 25544U 98067A   23089.49590255  .00035268  00000-0  62668-3 0  9996
2 25544  51.6426 358.4274 0005296 149.2000  23.6456 15.49830654389581
0 TEVEL 8
1 50989U 22002F   23089.46983635  .00025390  00000-0  11207-2 0  9995
2 50989  97.4419 157.1764 0009780 147.8393 338.1813 15.21697808 66777
0 XW-2C
1 40906U 15049H   23089.46972235  .00017424  00000-0  71339-3 0  9992
2 40906  97.4973  96.4516 0014648  80.3097  75.8603 15.24273197416394
0 AO-91
1 43017U 17073E   23089.44608405  .00013482  00000-0  95891-3 0  9999
2 43017  97.6420 336.9071 0236332 329.4487  29.3135 14.84925319289491
0 XW-2D
1 40907U 15049J   23089.37272375  .00020711  00000-0  81006-3 0  9996
2 40907  97.4964  96.6985 0013758  76.2621  30.7684 15.25780638416455
0 OBJECT C
1 54684U 22167C   23089.32816381  .00018676  00000-0  10912-2 0  9992
2 54684  97.5485 227.6206 0013803 245.4998 201.3967 15.11866012 16756
0 DIWATA 2B
1 43678U 18084H   23089.32076044  .00002872  00000-0  28111-3 0  9992
2 43678  98.0076 231.7756 0010663  65.4337 294.7973 14.93099826240496
0 XW-2E
1 40909U 15049L   23089.30181032  .00036093  00000-0  11121-2 0  9990
2 40909  97.4606 102.1909 0011527  55.9341 314.6931 15.33466013417035
0 XW-2B
1 40911U 15049N   23089.28348704  .00020431  00000-0  80385-3 0  9999
2 40911  97.4935  97.0906 0013585  77.3772 340.7276 15.25589578416320
0 CSS (TIANHE-1)
1 48274U 21035A   23089.27978009  .00042651  00000-0  44325-3 0  9999
2 48274  41.4744 277.1108 0004563 259.8624  92.1645 15.63810670109487
0 TEVEL 4
1 51063U 22002CH  23089.26844583  .00025944  00000-0  11462-2 0  9993
2 51063  97.4419 156.9413 0009824 148.3324 285.2758 15.21662548 66748
0 TEVEL 7
1 51062U 22002CG  23089.26431609  .00025876  00000-0  11419-2 0  9999
2 51062  97.4421 156.9518 0009852 148.2152 283.2548 15.21699550 66743
0 LILACSAT 2
1 40908U 15049K   23089.26214414  .00009304  00000-0  45105-3 0  9990
2 40908  97.5271  92.5980 0016368 103.6351 311.9887 15.18621209415811
0 TEVEL 1
1 51013U 22002AF  23089.25458175  .00025750  00000-0  11361-2 0  9998
2 51013  97.4417 156.8667 0009458 147.7674 282.9502 15.21712127 66745
0 TEVEL 3
1 50988U 22002E   23089.24731713  .00025578  00000-0  11273-2 0  9999
2 50988  97.4412 156.9069 0009830 148.6171 284.0653 15.21747608 66745
0 XW-3 (CAS 9)
1 50466U 21131B   23089.24263381  .00001451  00000-0  48666-3 0  9994
2 50466  98.5537 171.0361 0004602  33.2243 326.9232 14.38789561 66009
0 ZHUHAI-1 01
1 42761U 17034D   23089.19535279  .00013979  00000-0  72539-3 0  9996
2 42761  43.0170 192.8839 0012544 310.4710 130.6377 15.15931232319652
0 ZHUHAI-1 02
1 42759U 17034B   23089.17582726  .00015113  00000-0  78492-3 0  9996
2 42759  43.0165 194.4329 0011884 310.2947 122.6449 15.15858605319643
0 TEVEL 2
1 51069U 22002CP  23089.17470582  .00027008  00000-0  11896-2 0  9997
2 51069  97.4413 156.8111 0010177 151.3459 233.5777 15.21752001 66738
0 TEVEL 6
1 50999U 22002R   23089.16153277  .00026981  00000-0  11643-2 0  9995
2 50999  97.4396 157.1158 0010934 141.8921 275.6462 15.22445505 66752
0 TEVEL 5
1 50998U 22002Q   23089.15767927  .00026590  00000-0  11477-2 0  9997
2 50998  97.4402 157.1154 0011066 143.6992 245.1221 15.22438393 66752
0 FUNCUBE 1
1 39444U 13066AE  23089.15735059  .00006940  00000-0  78303-3 0  9990
2 39444  97.6636  56.1578 0054097 171.2778 188.9391 14.85794657504490
0 XW-2F
1 40910U 15049M   23089.14687664  .00036021  00000-0  11309-2 0  9995
2 40910  97.4689 101.2509 0012212  56.7606   8.9505 15.32859149416763
0 AO-95
1 43770U 18099N   23089.14560681  .00007952  00000-0  66072-3 0  9998
2 43770  97.5823 152.8294 0014421  40.1160 320.1125 14.98917199235767
0 ES'HAIL 2
1 43700U 18090A   23089.08060913  .00000137  00000-0  00000+0 0  9991
2 43700   0.0176 166.4686 0001102 196.3963 239.1402  1.00272284 16136
0 LAPAN A2
1 40931U 15052B   23089.02938052  .00001677  00000-0  14249-3 0  9995
2 40931   5.9987 291.6153 0013487 255.7927 104.0760 14.77128135405639
0 SAUDISAT 1C
1 27607U 02058C   23088.88882595  .00002798  00000-0  39731-3 0  9993
2 27607  64.5549 147.9983 0075371 240.4858 118.8715 14.77030561 90512
0 NEXUS
1 43937U 19003F   23088.88830741  .00058641  00000-0  12563-2 0  9992
2 43937  97.0989 117.5015 0015217 196.6023 163.4730 15.44446345233779
0 EYESAT A
1 22825U 93061C   23088.87861199  .00000276  00000-0  12418-3 0  9992
2 22825  98.8519 130.4527 0007472 303.3634  56.6832 14.30273775538954
0 BREEZE-KM R/B
1 44909U 19096E   23088.86826647  .00000040  00000-0  11454-3 0  9991
2 44909  82.5238  40.6420 0217867  12.7318 347.9163 12.79719546152018
0 OSCAR 7
1 07530U 74089B   23088.86601545 -.00000016  00000-0  18666-3 0  9997
2 07530 101.9431  75.0220 0011989 214.1811 209.2353 12.53662713213239
0 JAS 2
1 24278U 96046B   23088.85011151  .00000044  00000-0  83583-4 0  9990
2 24278  98.5234  78.2373 0349191 262.6912  93.4421 13.53139941314203
0 JY1SAT
1 43803U 18099AX  23088.75120495  .00008775  00000-0  71207-3 0  9996
2 43803  97.5805 153.4007 0014339  27.7727 332.4259 14.99800135235789
0 UVSQ-SAT
1 47438U 21006AB  23088.73708886  .00021559  00000-0  95117-3 0  9991
2 47438  97.3946 147.0942 0009851  10.0925 350.0507 15.21745092120552
0 NAYIF 1
1 42017U 17008BX  23088.72418184  .00119618  00000-0  16530-2 0  9999
2 42017  97.2226 157.9062 0002673 265.3526  94.7424 15.56737659341025
0 AO-92
1 43137U 18004AC  23088.70802359  .00043076  00000-0  10649-2 0  9998
2 43137  97.3337 167.3518 0006554  76.3746 283.8230 15.40326579290050
0 MT-CUBE-2
1 53106U 22080B   23088.05176028 -.00000003  00000-0  00000-0 0  9991
2 53106  70.1795 347.5677 0008286 204.3079 155.7190  6.42557135 16603
0 XW-4 (CAS-10)
1 54816U 21035C   23072.25043904  .02330371  77621-5  12756-2 0  9996
2 54816  41.5077   9.4914 0017840 162.4710 197.7314 16.18206266 13316
